     2.100          NAVIGATION                              RINEX VERSION / TYPE
fic2rin                                 10/06/2009 01:17:14 PGM / RUN BY / DATE
                                                            END OF HEADER
18 09 10  5 10  0  0.0  .178767368197D-04  .284217094304D-11  .000000000000D+00
     .410000000000D+02  .453125000000D+02  .542308303603D-08 -.616549399243D-01
     .250898301601D-05  .109340002527D-01  .153481960297D-05  .515362942505D+04
     .122400000000D+06  .819563865662D-07 -.170239278907D+01  .180676579475D-06
     .940171095523D+00  .341500000000D+03 -.237146040608D+01 -.893680082505D-08
     .274297139863D-09  .100000000000D+01  .155200000000D+04  .000000000000D+00
     .240000000000D+01  .000000000000D+00 -.107102096081D-07  .410000000000D+02
     .115206000000D+06  .400000000000D+01
19 09 10  5 10  0  0.0  .775326043367D-05 -.170530256582D-11  .000000000000D+00
     .850000000000D+02 -.438437500000D+02  .454947521819D-08 -.206602933247D+01
    -.227242708206D-05  .584639166482D-02  .968761742115D-05  .515365993881D+04
     .122400000000D+06 -.391155481339D-07  .253451812124D+01 -.409781932831D-07
     .957756668444D+00  .191812500000D+03 -.235604972567D+00 -.802962018020D-08
    -.625026034843D-09  .100000000000D+01  .155200000000D+04  .000000000000D+00
     .240000000000D+01  .000000000000D+00 -.149011611938D-07  .850000000000D+02
     .115206000000D+06  .400000000000D+01
20 09 10  5 10  0  0.0  .707032158971D-04 -.909494701773D-12  .000000000000D+00
     .100000000000D+02  .691250000000D+02  .533950812623D-08  .113597762751D+00
     .333227217197D-05  .386270077433D-02  .183656811714D-05  .515376153183D+04
     .122400000000D+06 -.745058059692D-07 -.175631279835D+01  .931322574615D-08
     .939918053120D+00  .334750000000D+03  .131545542486D+01 -.886608359368D-08
     .319299014371D-09  .100000000000D+01  .155200000000D+04  .000000000000D+00
     .240000000000D+01  .000000000000D+00 -.745058059692D-08  .100000000000D+02
     .115206000000D+06  .400000000000D+01
21 09 10  5 10  0  0.0 -.132387503982D-04 -.227373675443D-11  .000000000000D+00
     .186000000000D+03  .925625000000D+02  .477627037940D-08  .115988518629D+01
     .501982867718D-05  .155892971670D-01  .111125409603D-04  .515375789452D+04
     .122400000000D+06 -.212341547012D-06 -.276056266669D+01  .139698386192D-06
     .933914193435D+00  .153218750000D+03 -.255540309084D+01 -.825998691875D-08
    -.810748056625D-10  .100000000000D+01  .155200000000D+04  .000000000000D+00
     .240000000000D+01  .000000000000D+00 -.121071934700D-07  .186000000000D+03
     .115206000000D+06  .400000000000D+01
22 09 10  5 10  0  0.0  .189465936273D-03 -.795807864051D-12  .000000000000D+00
     .710000000000D+02  .487187500000D+02  .541951145869D-08 -.108538824968D+01
     .273995101452D-05  .534472998697D-02  .119023025036D-05  .515365920258D+04
     .122400000000D+06  .298023223877D-07 -.169697852780D+01  .726431608200D-07
     .937841891485D+00  .345000000000D+03 -.188623551410D+01 -.886751222462D-08
     .290369237901D-09  .100000000000D+01  .155200000000D+04  .000000000000D+00
     .485000000000D+01  .000000000000D+00 -.176951289177D-07  .710000000000D+02
     .115206000000D+06  .400000000000D+01
23 09 10  5 10  0  0.0  .387865584344D-03 -.454747350886D-12  .000000000000D+00
     .790000000000D+02 -.126687500000D+03  .444911389488D-08 -.257033088101D+01
    -.640004873276D-05  .639315508306D-02  .697560608387D-05  .515376959991D+04
     .122400000000D+06 -.894069671631D-07 -.675235480051D+00  .130385160446D-07
     .969712364984D+00  .254468750000D+03  .298470733798D+01 -.809069415274D-08
    -.328227957726D-09  .100000000000D+01  .155200000000D+04  .000000000000D+00
     .240000000000D+01  .000000000000D+00 -.200234353542D-07  .790000000000D+02
     .115206000000D+06  .400000000000D+01
24 09 10  5 10  0  0.0  .226053874940D-03  .306954461848D-11  .000000000000D+00
     .300000000000D+02  .885312500000D+02  .442554148442D-08 -.178339039965D+00
     .460259616375D-05  .640322954860D-02  .104866921902D-04  .515367553139D+04
     .122400000000D+06  .279396772385D-07 -.272621894438D+01 -.149011611938D-06
     .950521043440D+00  .171093750000D+03 -.612148470601D+00 -.807569352791D-08
     .165721188667D-09  .100000000000D+01  .155200000000D+04  .000000000000D+00
     .240000000000D+01  .630000000000D+02 -.139698386192D-08  .300000000000D+02
     .115206000000D+06  .400000000000D+01
25 09 10  5 10  0  0.0  .619990285486D-03  .140971678775D-10  .000000000000D+00
     .860000000000D+02 -.345937500000D+02  .417588822822D-08  .375447509067D+00
    -.175647437572D-05  .112313822610D-01  .127907842398D-04  .515365010643D+04
     .122400000000D+06 -.113621354103D-06  .271694035136D+00 -.521540641785D-07
     .971428489313D+00  .142812500000D+03 -.121340676982D+01 -.796676041898D-08
     .344300055765D-09  .100000000000D+01  .155200000000D+04  .000000000000D+00
     .240000000000D+01  .000000000000D+00 -.745058059692D-08  .860000000000D+02
     .115206000000D+06  .400000000000D+01
26 09 10  5 10  0  0.0  .912183895707D-05 -.125055521494D-11  .000000000000D+00
     .112000000000D+03 -.118531250000D+03  .394194991232D-08  .155521584402D+01
    -.624172389507D-05  .196690792218D-01  .816024839878D-05  .515361157608D+04
     .122400000000D+06 -.489875674248D-06 -.622752874100D+00 -.137835741043D-06
     .992209097263D+00  .246062500000D+03  .103104359625D+01 -.794568811266D-08
    -.359657838335D-09  .100000000000D+01  .155200000000D+04  .000000000000D+00
     .240000000000D+01  .000000000000D+00 -.605359673500D-08  .112000000000D+03
     .115206000000D+06  .400000000000D+01
27 09 10  5 10  0  0.0  .885678455234D-04  .329691829393D-11  .000000000000D+00
     .200000000000D+02 -.100000000000D+01  .397302263520D-08 -.180585467710D+01
     .283122062683D-06  .213775123702D-01  .119972974062D-04  .515373669434D+04
     .122400000000D+06  .195577740669D-06  .308508412488D+00  .437721610069D-06
     .976194219985D+00  .151250000000D+03 -.153839905211D+01 -.747602569219D-08
     .351086052715D-09  .100000000000D+01  .155200000000D+04  .000000000000D+00
     .240000000000D+01  .000000000000D+00 -.419095158577D-08  .200000000000D+02
     .115206000000D+06  .400000000000D+01
29 09 10  5 10  0  0.0  .633560121059D-04  .318323145621D-11  .000000000000D+00
     .660000000000D+02 -.470937500000D+02  .458876256895D-08  .120763770264D+01
    -.264495611191D-05  .302002707031D-02  .880286097527D-05  .515359801483D+04
     .122400000000D+06  .149011611938D-07  .248705291176D+01 -.353902578354D-07
     .960292097118D+00  .210187500000D+03 -.127348757478D+01 -.804926385558D-08
    -.666456332010D-09  .100000000000D+01  .155200000000D+04  .000000000000D+00
     .240000000000D+01  .000000000000D+00 -.884756445885D-08  .660000000000D+02
     .115206000000D+06  .400000000000D+01
30 09 10  5 10  0  0.0  .182368326932D-03  .306954461848D-11  .000000000000D+00
     .290000000000D+02  .313750000000D+02  .533057918288D-08 -.361060600675D+00
     .168941915035D-05  .119321965612D-01  .469386577606D-05  .515365535355D+04
     .122400000000D+06 -.100582838058D-06  .136875897801D+01  .726431608200D-07
     .952968852098D+00  .285281250000D+03  .145951472178D+01 -.871143429478D-08
     .237867050975D-09  .100000000000D+01  .155200000000D+04  .000000000000D+00
     .240000000000D+01  .000000000000D+00 -.791624188423D-08  .290000000000D+02
     .115206000000D+06  .400000000000D+01
31 09 10  5 10  0  0.0 -.634263269603D-04  .568434188608D-12  .000000000000D+00
     .280000000000D+02 -.946875000000D+01  .401766735197D-08  .192195559801D+01
    -.435858964920D-06  .707654014695D-02  .126585364342D-04  .515380443001D+04
     .122400000000D+06  .875443220139D-07  .364389230846D+00 -.167638063431D-07
     .974587043554D+00  .138093750000D+03 -.113966886973D+01 -.758567311659D-08
     .318941856637D-09  .100000000000D+01  .155200000000D+04  .000000000000D+00
     .240000000000D+01  .000000000000D+00 -.130385160446D-07  .280000000000D+02
     .115206000000D+06  .400000000000D+01
32 09 10  5 10  0  0.0  .183794647455D-03 -.727595761418D-11  .000000000000D+00
     .260000000000D+02  .486875000000D+02  .485091634585D-08  .284789660264D+01
     .226125121117D-05  .132629009895D-01  .784173607826D-06  .515369980812D+04
     .122400000000D+06  .173225998878D-06 -.164391280270D+01  .109896063805D-06
     .961865734689D+00  .362656250000D+03 -.110871861559D+01 -.840677874751D-08
     .198579700213D-09  .100000000000D+01  .155200000000D+04  .000000000000D+00
     .240000000000D+01  .000000000000D+00 -.325962901115D-08  .260000000000D+02
     .115206000000D+06  .400000000000D+01
 1 09 10  5  9 59 44.0 -.588595867157D-04 -.113686837722D-11  .000000000000D+00
     .120000000000D+02  .278125000000D+02  .636026493056D-08  .227258706009D-01
     .147148966789D-05  .379946304020D-02  .436604022980D-05  .515369367599D+04
     .122384000000D+06  .745058059692D-08  .140569286114D+01  .204890966415D-07
     .961712379912D+00  .293156250000D+03  .977890771933D+00 -.844749472921D-08
     .148577617426D-09  .100000000000D+01  .155200000000D+04  .000000000000D+00
     .240000000000D+01  .630000000000D+02 -.190921127796D-07  .120000000000D+02
     .116886000000D+06  .400000000000D+01
 1 09 10  5 11 59 44.0 -.588679686189D-04 -.113686837722D-11  .000000000000D+00
     .130000000000D+02  .292187500000D+02  .634347851706D-08  .107277029451D+01
     .154413282871D-05  .380040798336D-02  .484101474285D-05  .515369572449D+04
     .129584000000D+06 -.409781932831D-07  .140563156048D+01  .137835741043D-06
     .961713725797D+00  .285656250000D+03  .978027841505D+00 -.843499420851D-08
     .245724521127D-09  .100000000000D+01  .155200000000D+04  .000000000000D+00
     .240000000000D+01  .630000000000D+02 -.190921127796D-07  .130000000000D+02
     .122406000000D+06  .400000000000D+01
